COSMOS 2433 (720)       
1 32275C 07052A   23070.99979167  .00000000  00000-0  00000-0 0   702
2 32275  66.0573 355.7911 0002901 290.8089  22.7185  2.13103947    13
COSMOS 2432 (719)       
1 32276C 07052B   23070.99979167  .00000000  00000-0  00000-0 0   703
2 32276  66.0714 355.8967 0011754 331.4916 289.5968  2.13103215    10
COSMOS 2434 (721)       
1 32393C 07065A   23070.99979167  .00000000  00000-0  00000-0 0   707
2 32393  64.3514 232.3026 0004738  78.0430 126.0036  2.13103025    13
COSMOS 2436 (723)       
1 32395C 07065C   23070.99979167  .00000000  00000-0  00000-0 0   709
2 32395  64.3601 232.3625 0016497   7.9722 331.7137  2.13102939    17
COSMOS 2456 (730)       
1 36111C 09070A   23070.99979167 -.00000000  00000-0  00000-0 0   708
2 36111  64.4285 111.8636 0005704 298.1272  67.6689  2.13099161    11
COSMOS 2457 (733)       
1 36112C 09070B   23070.99979167 -.00000000  00000-0  00000-0 0   709
2 36112  64.4122 111.7330 0004425 194.0923 301.1168  2.13101231    18
COSMOS 2460 (732)       
1 36402C 10007C   23070.99979167  .00000000  00000-0  00000-0 0   702
2 36402  65.9236 354.5362 0002273 357.6052 123.9937  2.13106242    14
COSMOS 2476 (744)       
1 37867C 11064A   23070.99979167 -.00000000  00000-0  00000-0 0   703
2 37867  64.7121 113.3236 0023877 239.5447  34.0715  2.13101716    17
COSMOS 2477 (745)       
1 37868C 11064B   23070.99979167 -.00000000  00000-0  00000-0 0   704
2 37868  64.7196 113.3911 0021106 240.9421 210.6346  2.13101607    12
COSMOS 2475 (743)       
1 37869C 11064C   23070.99979167 -.00000000  00000-0  00000-0 0   705
2 37869  64.7267 113.4017 0025784 256.0572 153.7827  2.13101878    12
COSMOS 2485 (747)       
1 39155C 13019A   23070.99979167 -.00000000  00000-0  00000-0 0   707
2 39155  64.8738 113.8095 0024164 235.7676  82.2140  2.13101796    19
COSMOS 2492 (754)       
1 39620C 14012A   23070.99979167  .00000000  00000-0  00000-0 0   707
2 39620  65.8085 354.1797 0014663 327.0648  25.2237  2.13103069    17
COSMOS 2500 (755)       
1 40001C 14032A   23070.99979167  .00000000  00000-0  00000-0 0   704
2 40001  65.7472 354.0208 0004538 215.8052 354.4037  2.13102235    19
COSMOS 2501 (702K)      
1 40315C 14075A   23070.99979167  .00000000  00000-0  00000-0 0   709
2 40315  63.6561 231.8117 0017569 204.3814 175.1095  2.13101402    18
COSMOS 2514 (751)       
1 41330C 16008A   23070.99979167  .00000000  00000-0  00000-0 0   705
2 41330  65.5456 353.6461 0008480 220.9133 173.5918  2.13102631    16
COSMOS 2522 (752)       
1 42939C 17055A   23070.99979167  .00000000  00000-0  00000-0 0   704
2 42939  64.1163 232.6364 0005469 235.0767 280.0531  2.13101743    12
COSMOS 2527 (756)       
1 43508C 18053A   23070.99979167 -.00000000  00000-0  00000-0 0   707
2 43508  65.0359 113.8654 0009862 239.2202 307.8553  2.13102405    13
COSMOS 2529 (757)       
1 43687C 18086A   23070.99979167  .00000000  00000-0  00000-0 0   700
2 43687  64.3315 233.0246 0007156 268.1518 202.4536  2.13101937    12
COSMOS 2534 (758)       
1 44299C 19030A   23070.99979167  .00000000  00000-0  00000-0 0   700
2 44299  64.4038 232.9345 0010012 293.2327 311.7088  2.13102027    12
COSMOS 2544 (759)       
1 44850C 19088A   23070.99979167 -.00000000  00000-0  00000-0 0   707
2 44850  65.0216 113.7119 0014816 259.8931 330.4231  2.13102191    10
COSMOS 2545 (760)       
1 45358C 20018A   23070.99979167  .00000000  00000-0  00000-0 0   705
2 45358  64.8853 354.0352 0008651 261.1013 178.3808  2.13102600    18
COSMOS 2547 (705K)      
1 46805C 20075A   23070.99979167  .00000000  00000-0  00000-0 0   706
2 46805  64.6300 232.4381 0005454 239.0713  54.4610  2.13103079    17
COSMOS 2557 (706K)      
1 52984C 20075A   23070.99979167  .00000000  00000-0  00000-0 0   701
2 52984  64.7955 356.2136 0012696 288.6663 241.4193  2.13101554    12
COSMOS 2559 (707K)      
1 54031C 22130A   23070.99979167  .00000000  00000-0  00000-0 0   700
2 54031  64.7663 356.3474 0005339 236.8652 338.3106  2.13100715    16
COSMOS 2564 (761)       
1 54377C 22161A   23070.99979167  .00000000  00000-0  00000-0 0   707
2 54377  64.7704 232.4594 0007220 210.2254 215.6123  2.13102113    17
